[{"OBJECT_NAME":"STARLINK-31291","OBJECT_ID":"2024-041Y","EPOCH":"2026-03-09T01:05:04.867872","MEAN_MOTION":15.27575207,"ECCENTRICITY":0.00010879,"INCLINATION":43.0032,"RA_OF_ASC_NODE":314.2775,"ARG_OF_PERICENTER":284.5172,"MEAN_ANOMALY":75.5559,"EPHEMERIS_TYPE":0,"CLASSIFICATION_TYPE":"U","NORAD_CAT_ID":59096,"ELEMENT_SET_NO":999,"REV_AT_EPOCH":11417,"BSTAR":5.7830231e-5,"MEAN_MOTION_DOT":1.329e-5,"MEAN_MOTION_DDOT":0},{"OBJECT_NAME":"CZ-6A DEB","OBJECT_ID":"2023-168D","EPOCH":"2026-03-09T19:03:52.964928","MEAN_MOTION":15.28240044,"ECCENTRICITY":0.00013417,"INCLINATION":97.7802,"RA_OF_ASC_NODE":98.3362,"ARG_OF_PERICENTER":174.0661,"MEAN_ANOMALY":186.0594,"EPHEMERIS_TYPE":0,"CLASSIFICATION_TYPE":"U","NORAD_CAT_ID":58202,"ELEMENT_SET_NO":999,"REV_AT_EPOCH":12922,"BSTAR":0.0014474773,"MEAN_MOTION_DOT":0.00039923,"MEAN_MOTION_DDOT":0}]
